{
  "type": "FeatureCollection",
  "features": [
    {
      "type": "Feature",
      "properties": {
        "norad_id": 66925,
        "name": "STARLINK-35945",
        "group": "last-30-days",
        "lat": -44.02391522790842,
        "lon": -121.14726479857542,
        "alt_km": 341.67848453869556,
        "timestamp": "2025-12-20T07:33:49.515676+00:00",
        "meta_object_name": "STARLINK-35945",
        "meta_object_id": "2025-286A",
        "meta_epoch": "2025-12-19T22:00:01.999584",
        "meta_mean_motion": 15.7891873,
        "meta_eccentricity": 8.353e-05,
        "meta_inclination": 53.1556,
        "meta_ra_of_asc_node": 14.3967,
        "meta_arg_of_pericenter": 80.7639,
        "meta_mean_anomaly": 54.0261,
        "meta_ephemeris_type": 0,
        "meta_classification_type": "U",
        "meta_norad_cat_id": 66925,
        "meta_element_set_no": 999,
        "meta_rev_at_epoch": 314,
        "meta_bstar": -0.0078309182,
        "meta_mean_motion_dot": -0.01249217,
        "meta_mean_motion_ddot": 0,
        "tle_line1": "1 66925U 25286A   25353.91668981 -.01249217  00000+0 -78309-2 0  9993",
        "tle_line2": "2 66925  53.1556  14.3967 0000835  80.7639  54.0261 15.78918730  3149"
      },
      "geometry": {
        "type": "Point",
        "coordinates": [
          -121.14726479857542,
          -44.02391522790842
        ]
      }
    },
    {
      "type": "Feature",
      "properties": {
        "norad_id": 66926,
        "name": "STARLINK-35942",
        "group": "last-30-days",
        "lat": -46.3042312931439,
        "lon": -115.90206154255746,
        "alt_km": 342.00183885875504,
        "timestamp": "2025-12-20T07:33:49.515686+00:00",
        "meta_object_name": "STARLINK-35942",
        "meta_object_id": "2025-286B",
        "meta_epoch": "2025-12-19T22:00:01.999584",
        "meta_mean_motion": 15.78870564,
        "meta_eccentricity": 9.057e-05,
        "meta_inclination": 53.1558,
        "meta_ra_of_asc_node": 14.3871,
        "meta_arg_of_pericenter": 99.4191,
        "meta_mean_anomaly": 39.8216,
        "meta_ephemeris_type": 0,
        "meta_classification_type": "U",
        "meta_norad_cat_id": 66926,
        "meta_element_set_no": 999,
        "meta_rev_at_epoch": 314,
        "meta_bstar": -0.0081293771,
        "meta_mean_motion_dot": -0.01288566,
        "meta_mean_motion_ddot": 0,
        "tle_line1": "1 66926U 25286B   25353.91668981 -.01288566  00000+0 -81294-2 0  9991",
        "tle_line2": "2 66926  53.1558  14.3871 0000905  99.4191  39.8216 15.78870564  3147"
      },
      "geometry": {
        "type": "Point",
        "coordinates": [
          -115.90206154255746,
          -46.3042312931439
        ]
      }
    },
    {
      "type": "Feature",
      "properties": {
        "norad_id": 66927,
        "name": "STARLINK-35943",
        "group": "last-30-days",
        "lat": -47.293704886442576,
        "lon": -113.2733317760054,
        "alt_km": 342.26280484786093,
        "timestamp": "2025-12-20T07:33:49.515696+00:00",
        "meta_object_name": "STARLINK-35943",
        "meta_object_id": "2025-286C",
        "meta_epoch": "2025-12-19T22:00:01.999584",
        "meta_mean_motion": 15.78860306,
        "meta_eccentricity": 0.00011226,
        "meta_inclination": 53.1557,
        "meta_ra_of_asc_node": 14.3831,
        "meta_arg_of_pericenter": 82.7969,
        "meta_mean_anomaly": 58.5295,
        "meta_ephemeris_type": 0,
        "meta_classification_type": "U",
        "meta_norad_cat_id": 66927,
        "meta_element_set_no": 999,
        "meta_rev_at_epoch": 314,
        "meta_bstar": -0.0082459372,
        "meta_mean_motion_dot": -0.01328717,
        "meta_mean_motion_ddot": 0,
        "tle_line1": "1 66927U 25286C   25353.91668981 -.01328717  00000+0 -82459-2 0  9999",
        "tle_line2": "2 66927  53.1557  14.3831 0001122  82.7969  58.5295 15.78860306  3141"
      },
      "geometry": {
        "type": "Point",
        "coordinates": [
          -113.2733317760054,
          -47.293704886442576
        ]
      }
    },
    {
      "type": "Feature",
      "properties": {
        "norad_id": 66928,
        "name": "STARLINK-35944",
        "group": "last-30-days",
        "lat": -45.244973087889974,
        "lon": -118.4607022239988,
        "alt_km": 341.8755184961865,
        "timestamp": "2025-12-20T07:33:49.515709+00:00",
        "meta_object_name": "STARLINK-35944",
        "meta_object_id": "2025-286D",
        "meta_epoch": "2025-12-19T22:00:01.999584",
        "meta_mean_motion": 15.78877617,
        "meta_eccentricity": 9.039e-05,
        "meta_inclination": 53.1558,
        "meta_ra_of_asc_node": 14.3915,
        "meta_arg_of_pericenter": 99.3991,
        "meta_mean_anomaly": 37.7348,
        "meta_ephemeris_type": 0,
        "meta_classification_type": "U",
        "meta_norad_cat_id": 66928,
        "meta_element_set_no": 999,
        "meta_rev_at_epoch": 314,
        "meta_bstar": -0.0079757845,
        "meta_mean_motion_dot": -0.01267497,
        "meta_mean_motion_ddot": 0,
        "tle_line1": "1 66928U 25286D   25353.91668981 -.01267497  00000+0 -79758-2 0  9995",
        "tle_line2": "2 66928  53.1558  14.3915 0000903  99.3991  37.7348 15.78877617  3142"
      },
      "geometry": {
        "type": "Point",
        "coordinates": [
          -118.4607022239988,
          -45.244973087889974
        ]
      }
    },
    {
      "type": "Feature",
      "properties": {
        "norad_id": 66929,
        "name": "STARLINK-36169",
        "group": "last-30-days",
        "lat": -48.252519066717504,
        "lon": -110.44874851052893,
        "alt_km": 342.4960829887923,
        "timestamp": "2025-12-20T07:33:49.515719+00:00",
        "meta_object_name": "STARLINK-36169",
        "meta_object_id": "2025-286E",
        "meta_epoch": "2025-12-19T22:00:01.999584",
        "meta_mean_motion": 15.788394,
        "meta_eccentricity": 0.00012199,
        "meta_inclination": 53.1555,
        "meta_ra_of_asc_node": 14.3782,
        "meta_arg_of_pericenter": 80.821,
        "meta_mean_anomaly": 62.6858,
        "meta_ephemeris_type": 0,
        "meta_classification_type": "U",
        "meta_norad_cat_id": 66929,
        "meta_element_set_no": 999,
        "meta_rev_at_epoch": 314,
        "meta_bstar": -0.0084211716,
        "meta_mean_motion_dot": -0.01352835,
        "meta_mean_motion_ddot": 0,
        "tle_line1": "1 66929U 25286E   25353.91668981 -.01352835  00000+0 -84212-2 0  9998",
        "tle_line2": "2 66929  53.1555  14.3782 0001219  80.8210  62.6858 15.78839400  3143"
      },
      "geometry": {
        "type": "Point",
        "coordinates": [
          -110.44874851052893,
          -48.252519066717504
        ]
      }
    },
    {
      "type": "Feature",
      "properties": {
        "norad_id": 66930,
        "name": "STARLINK-36206",
        "group": "last-30-days",
        "lat": -49.09942259328718,
        "lon": -107.66003674254007,
        "alt_km": 342.27504414408577,
        "timestamp": "2025-12-20T07:33:49.515729+00:00",
        "meta_object_name": "STARLINK-36206",
        "meta_object_id": "2025-286F",
        "meta_epoch": "2025-12-19T22:00:01.999584",
        "meta_mean_motion": 15.78825546,
        "meta_eccentricity": 7.39e-05,
        "meta_inclination": 53.1554,
        "meta_ra_of_asc_node": 14.3737,
        "meta_arg_of_pericenter": 95.0113,
        "meta_mean_anomaly": 50.554,
        "meta_ephemeris_type": 0,
        "meta_classification_type": "U",
        "meta_norad_cat_id": 66930,
        "meta_element_set_no": 999,
        "meta_rev_at_epoch": 314,
        "meta_bstar": -0.0084647891,
        "meta_mean_motion_dot": -0.01358063,
        "meta_mean_motion_ddot": 0,
        "tle_line1": "1 66930U 25286F   25353.91668981 -.01358063  00000+0 -84648-2 0  9992",
        "tle_line2": "2 66930  53.1554  14.3737 0000739  95.0113  50.5540 15.78825546  3140"
      },
      "geometry": {
        "type": "Point",
        "coordinates": [
          -107.66003674254007,
          -49.09942259328718
        ]
      }
    },
    {
      "type": "Feature",
      "properties": {
        "norad_id": 66931,
        "name": "STARLINK-36130",
        "group": "last-30-days",
        "lat": -49.920720243555735,
        "lon": -104.60420306907335,
        "alt_km": 342.7051795473444,
        "timestamp": "2025-12-20T07:33:49.515739+00:00",
        "meta_object_name": "STARLINK-36130",
        "meta_object_id": "2025-286G",
        "meta_epoch": "2025-12-19T22:00:01.999584",
        "meta_mean_motion": 15.78796415,
        "meta_eccentricity": 0.00011538,
        "meta_inclination": 53.1555,
        "meta_ra_of_asc_node": 14.3692,
        "meta_arg_of_pericenter": 82.1436,
        "meta_mean_anomaly": 65.6314,
        "meta_ephemeris_type": 0,
        "meta_classification_type": "U",
        "meta_norad_cat_id": 66931,
        "meta_element_set_no": 999,
        "meta_rev_at_epoch": 314,
        "meta_bstar": -0.008626938,
        "meta_mean_motion_dot": -0.01379824,
        "meta_mean_motion_ddot": 0,
        "tle_line1": "1 66931U 25286G   25353.91668981 -.01379824  00000+0 -86269-2 0  9992",
        "tle_line2": "2 66931  53.1555  14.3692 0001153  82.1436  65.6314 15.78796415  3146"
      },
      "geometry": {
        "type": "Point",
        "coordinates": [
          -104.60420306907335,
          -49.920720243555735
        ]
      }
    }
  ]
}